[
    {"state": "Tamil Nadu", "city": "Chennai", "district": "Chennai", "pincode": "600001", "latitude": 13.0827, "longitude": 80.2707},
    {"state": "Tamil Nadu", "city": "Chennai", "district": "Chennai", "pincode": "600002", "latitude": 13.0827, "longitude": 80.2707},
    {"state": "Tamil Nadu", "city": "Chennai", "district": "Chennai", "pincode": "600003", "latitude": 13.0827, "longitude": 80.2707},
    {"state": "Tamil Nadu", "city": "Chennai", "district": "Chennai", "pincode": "600004", "latitude": 13.0827, "longitude": 80.2707},
    {"state": "Tamil Nadu", "city": "Chennai", "district": "Chennai", "pincode": "600005", "latitude": 13.0827, "longitude": 80.2707},
    {"state": "Tamil Nadu", "city": "Tambaram", "district": "Chengalpattu", "pincode": "600045", "latitude": 12.9249, "longitude": 80.1000},
    {"state": "Tamil Nadu", "city": "Chengalpattu", "district": "Chengalpattu", "pincode": "603001", "latitude": 12.6958, "longitude": 79.9770},
    {"state": "Tamil Nadu", "city": "Kanchipuram", "district": "Kanchipuram", "pincode": "631501", "latitude": 12.8342, "longitude": 79.7036},
    {"state": "Tamil Nadu", "city": "Sriperumbudur", "district": "Kanchipuram", "pincode": "602105", "latitude": 12.9689, "longitude": 79.9489},
    {"state": "Tamil Nadu", "city": "Vellore", "district": "Vellore", "pincode": "632001", "latitude": 12.9166, "longitude": 79.1325},
    {"state": "Tamil Nadu", "city": "Ranipet", "district": "Ranipet", "pincode": "632401", "latitude": 12.9279, "longitude": 79.3317},
    {"state": "Tamil Nadu", "city": "Tirupattur", "district": "Tirupattur", "pincode": "635601", "latitude": 12.4974, "longitude": 78.5599},
    {"state": "Tamil Nadu", "city": "Krishnagiri", "district": "Krishnagiri", "pincode": "635001", "latitude": 12.5186, "longitude": 78.2137},
    {"state": "Tamil Nadu", "city": "Dharmapuri", "district": "Dharmapuri", "pincode": "636701", "latitude": 12.1270, "longitude": 78.1579},
    {"state": "Tamil Nadu", "city": "Salem", "district": "Salem", "pincode": "636001", "latitude": 11.6643, "longitude": 78.1460},
    {"state": "Tamil Nadu", "city": "Salem", "district": "Salem", "pincode": "636002", "latitude": 11.6643, "longitude": 78.1460},
    {"state": "Tamil Nadu", "city": "Attur", "district": "Salem", "pincode": "636102", "latitude": 11.5941, "longitude": 78.6014},
    {"state": "Tamil Nadu", "city": "Namakkal", "district": "Namakkal", "pincode": "637001", "latitude": 11.2213, "longitude": 78.1652},
    {"state": "Tamil Nadu", "city": "Rasipuram", "district": "Namakkal", "pincode": "637408", "latitude": 11.4600, "longitude": 78.1800},
    {"state": "Tamil Nadu", "city": "Erode", "district": "Erode", "pincode": "638001", "latitude": 11.3410, "longitude": 77.7172},
    {"state": "Tamil Nadu", "city": "Erode", "district": "Erode", "pincode": "638002", "latitude": 11.3410, "longitude": 77.7172},
    {"state": "Tamil Nadu", "city": "Bhavani", "district": "Erode", "pincode": "638301", "latitude": 11.4477, "longitude": 77.6825},
    {"state": "Tamil Nadu", "city": "Gobichettipalayam", "district": "Erode", "pincode": "638452", "latitude": 11.4544, "longitude": 77.4422},
    {"state": "Tamil Nadu", "city": "Coimbatore", "district": "Coimbatore", "pincode": "641001", "latitude": 11.0168, "longitude": 76.9558},
    {"state": "Tamil Nadu", "city": "Coimbatore", "district": "Coimbatore", "pincode": "641002", "latitude": 11.0168, "longitude": 76.9558},
    {"state": "Tamil Nadu", "city": "Coimbatore", "district": "Coimbatore", "pincode": "641003", "latitude": 11.0168, "longitude": 76.9558},
    {"state": "Tamil Nadu", "city": "Coimbatore", "district": "Coimbatore", "pincode": "641004", "latitude": 11.0168, "longitude": 76.9558},
    {"state": "Tamil Nadu", "city": "Pollachi", "district": "Coimbatore", "pincode": "642001", "latitude": 10.6584, "longitude": 77.0083},
    {"state": "Tamil Nadu", "city": "Mettupalayam", "district": "Coimbatore", "pincode": "641301", "latitude": 11.2997, "longitude": 76.9348},
    {"state": "Tamil Nadu", "city": "Tiruppur", "district": "Tiruppur", "pincode": "641601", "latitude": 11.1085, "longitude": 77.3411},
    {"state": "Tamil Nadu", "city": "Tiruppur", "district": "Tiruppur", "pincode": "641602", "latitude": 11.1085, "longitude": 77.3411},
    {"state": "Tamil Nadu", "city": "Dharapuram", "district": "Tiruppur", "pincode": "638656", "latitude": 10.7380, "longitude": 77.5194},
    {"state": "Tamil Nadu", "city": "Udumalpet", "district": "Tiruppur", "pincode": "642126", "latitude": 10.5769, "longitude": 77.2478},
    {"state": "Tamil Nadu", "city": "Nilgiris", "district": "Nilgiris", "pincode": "643001", "latitude": 11.4090, "longitude": 76.6932},
    {"state": "Tamil Nadu", "city": "Ooty", "district": "Nilgiris", "pincode": "643001", "latitude": 11.4102, "longitude": 76.6950},
    {"state": "Tamil Nadu", "city": "Coonoor", "district": "Nilgiris", "pincode": "643101", "latitude": 11.3470, "longitude": 76.8014},
    {"state": "Tamil Nadu", "city": "Gudalur", "district": "Nilgiris", "pincode": "643212", "latitude": 11.4983, "longitude": 76.4931},
    {"state": "Tamil Nadu", "city": "Karur", "district": "Karur", "pincode": "639001", "latitude": 10.9601, "longitude": 78.0766},
    {"state": "Tamil Nadu", "city": "Kulithalai", "district": "Karur", "pincode": "639104", "latitude": 10.9369, "longitude": 78.4103},
    {"state": "Tamil Nadu", "city": "Tiruchirappalli", "district": "Tiruchirappalli", "pincode": "620001", "latitude": 10.7905, "longitude": 78.7047},
    {"state": "Tamil Nadu", "city": "Tiruchirappalli", "district": "Tiruchirappalli", "pincode": "620002", "latitude": 10.7905, "longitude": 78.7047},
    {"state": "Tamil Nadu", "city": "Tiruchirappalli", "district": "Tiruchirappalli", "pincode": "620003", "latitude": 10.7905, "longitude": 78.7047},
    {"state": "Tamil Nadu", "city": "Srirangam", "district": "Tiruchirappalli", "pincode": "620006", "latitude": 10.8630, "longitude": 78.6919},
    {"state": "Tamil Nadu", "city": "Lalgudi", "district": "Tiruchirappalli", "pincode": "621601", "latitude": 10.8744, "longitude": 78.8194},
    {"state": "Tamil Nadu", "city": "Perambalur", "district": "Perambalur", "pincode": "621212", "latitude": 11.2340, "longitude": 78.8722},
    {"state": "Tamil Nadu", "city": "Ariyalur", "district": "Ariyalur", "pincode": "621704", "latitude": 11.1375, "longitude": 79.0758},
    {"state": "Tamil Nadu", "city": "Cuddalore", "district": "Cuddalore", "pincode": "607001", "latitude": 11.7447, "longitude": 79.7680},
    {"state": "Tamil Nadu", "city": "Chidambaram", "district": "Cuddalore", "pincode": "608001", "latitude": 11.3994, "longitude": 79.6914},
    {"state": "Tamil Nadu", "city": "Vriddhachalam", "district": "Cuddalore", "pincode": "606001", "latitude": 11.5183, "longitude": 79.3242},
    {"state": "Tamil Nadu", "city": "Villupuram", "district": "Villupuram", "pincode": "605602", "latitude": 11.9394, "longitude": 79.4922},
    {"state": "Tamil Nadu", "city": "Tindivanam", "district": "Villupuram", "pincode": "604001", "latitude": 12.2340, "longitude": 79.6556},
    {"state": "Tamil Nadu", "city": "Kallakurichi", "district": "Kallakurichi", "pincode": "606201", "latitude": 11.7333, "longitude": 78.9667},
    {"state": "Tamil Nadu", "city": "Sankarapuram", "district": "Kallakurichi", "pincode": "606401", "latitude": 11.9000, "longitude": 78.8500},
    {"state": "Tamil Nadu", "city": "Puducherry", "district": "Puducherry", "pincode": "605001", "latitude": 11.9416, "longitude": 79.8083},
    {"state": "Tamil Nadu", "city": "Pondicherry", "district": "Puducherry", "pincode": "605001", "latitude": 11.9416, "longitude": 79.8083},
    {"state": "Tamil Nadu", "city": "Thanjavur", "district": "Thanjavur", "pincode": "613001", "latitude": 10.7869, "longitude": 79.1378},
    {"state": "Tamil Nadu", "city": "Thanjavur", "district": "Thanjavur", "pincode": "613002", "latitude": 10.7869, "longitude": 79.1378},
    {"state": "Tamil Nadu", "city": "Kumbakonam", "district": "Thanjavur", "pincode": "612001", "latitude": 10.9598, "longitude": 79.3910},
    {"state": "Tamil Nadu", "city": "Pattukkottai", "district": "Thanjavur", "pincode": "614601", "latitude": 10.4244, "longitude": 79.3194},
    {"state": "Tamil Nadu", "city": "Pudukkottai", "district": "Pudukkottai", "pincode": "622001", "latitude": 10.3810, "longitude": 78.8214},
    {"state": "Tamil Nadu", "city": "Aranthangi", "district": "Pudukkottai", "pincode": "614616", "latitude": 10.1722, "longitude": 78.9911},
    {"state": "Tamil Nadu", "city": "Sivaganga", "district": "Sivaganga", "pincode": "630561", "latitude": 9.8432, "longitude": 78.4809},
    {"state": "Tamil Nadu", "city": "Karaikudi", "district": "Sivaganga", "pincode": "630001", "latitude": 10.0667, "longitude": 78.7833},
    {"state": "Tamil Nadu", "city": "Devakottai", "district": "Sivaganga", "pincode": "630302", "latitude": 9.9472, "longitude": 78.8233},
    {"state": "Tamil Nadu", "city": "Madurai", "district": "Madurai", "pincode": "625001", "latitude": 9.9252, "longitude": 78.1198},
    {"state": "Tamil Nadu", "city": "Madurai", "district": "Madurai", "pincode": "625002", "latitude": 9.9252, "longitude": 78.1198},
    {"state": "Tamil Nadu", "city": "Madurai", "district": "Madurai", "pincode": "625003", "latitude": 9.9252, "longitude": 78.1198},
    {"state": "Tamil Nadu", "city": "Madurai", "district": "Madurai", "pincode": "625004", "latitude": 9.9252, "longitude": 78.1198},
    {"state": "Tamil Nadu", "city": "Melur", "district": "Madurai", "pincode": "625106", "latitude": 10.0500, "longitude": 78.3333},
    {"state": "Tamil Nadu", "city": "Usilampatti", "district": "Madurai", "pincode": "625532", "latitude": 9.9667, "longitude": 77.8000},
    {"state": "Tamil Nadu", "city": "Theni", "district": "Theni", "pincode": "625531", "latitude": 10.0104, "longitude": 77.4768},
    {"state": "Tamil Nadu", "city": "Bodinayakkanur", "district": "Theni", "pincode": "625513", "latitude": 10.0117, "longitude": 77.3500},
    {"state": "Tamil Nadu", "city": "Cumbum", "district": "Theni", "pincode": "625516", "latitude": 9.7367, "longitude": 77.2847},
    {"state": "Tamil Nadu", "city": "Dindigul", "district": "Dindigul", "pincode": "624001", "latitude": 10.3629, "longitude": 77.9754},
    {"state": "Tamil Nadu", "city": "Dindigul", "district": "Dindigul", "pincode": "624002", "latitude": 10.3629, "longitude": 77.9754},
    {"state": "Tamil Nadu", "city": "Palani", "district": "Dindigul", "pincode": "624601", "latitude": 10.4500, "longitude": 77.5167},
    {"state": "Tamil Nadu", "city": "Kodaikanal", "district": "Dindigul", "pincode": "624101", "latitude": 10.2381, "longitude": 77.4892},
    {"state": "Tamil Nadu", "city": "Batlagundu", "district": "Dindigul", "pincode": "624202", "latitude": 10.1667, "longitude": 77.8000},
    {"state": "Tamil Nadu", "city": "Ramanathapuram", "district": "Ramanathapuram", "pincode": "623501", "latitude": 9.3711, "longitude": 78.8308},
    {"state": "Tamil Nadu", "city": "Rameswaram", "district": "Ramanathapuram", "pincode": "623526", "latitude": 9.2881, "longitude": 79.3128},
    {"state": "Tamil Nadu", "city": "Paramakudi", "district": "Ramanathapuram", "pincode": "623707", "latitude": 9.5500, "longitude": 78.6000},
    {"state": "Tamil Nadu", "city": "Virudhunagar", "district": "Virudhunagar", "pincode": "626001", "latitude": 9.5852, "longitude": 77.9573},
    {"state": "Tamil Nadu", "city": "Sivakasi", "district": "Virudhunagar", "pincode": "626123", "latitude": 9.4492, "longitude": 77.7972},
    {"state": "Tamil Nadu", "city": "Rajapalayam", "district": "Virudhunagar", "pincode": "626117", "latitude": 9.4528, "longitude": 77.5531},
    {"state": "Tamil Nadu", "city": "Aruppukkottai", "district": "Virudhunagar", "pincode": "626101", "latitude": 9.5083, "longitude": 78.0933},
    {"state": "Tamil Nadu", "city": "Sattur", "district": "Virudhunagar", "pincode": "626203", "latitude": 9.3556, "longitude": 77.9244},
    {"state": "Tamil Nadu", "city": "Tirunelveli", "district": "Tirunelveli", "pincode": "627001", "latitude": 8.7139, "longitude": 77.7567},
    {"state": "Tamil Nadu", "city": "Tirunelveli", "district": "Tirunelveli", "pincode": "627002", "latitude": 8.7139, "longitude": 77.7567},
    {"state": "Tamil Nadu", "city": "Ambasamudram", "district": "Tirunelveli", "pincode": "627401", "latitude": 8.7000, "longitude": 77.4500},
    {"state": "Tamil Nadu", "city": "Nanguneri", "district": "Tirunelveli", "pincode": "627108", "latitude": 8.4833, "longitude": 77.6500},
    {"state": "Tamil Nadu", "city": "Tenkasi", "district": "Tenkasi", "pincode": "627811", "latitude": 8.9553, "longitude": 77.3153},
    {"state": "Tamil Nadu", "city": "Shenkottai", "district": "Tenkasi", "pincode": "627809", "latitude": 8.9667, "longitude": 77.2500},
    {"state": "Tamil Nadu", "city": "Kadayanallur", "district": "Tenkasi", "pincode": "627751", "latitude": 9.0833, "longitude": 77.3500},
    {"state": "Tamil Nadu", "city": "Thoothukudi", "district": "Thoothukudi", "pincode": "628001", "latitude": 8.7642, "longitude": 78.1348},
    {"state": "Tamil Nadu", "city": "Thoothukudi", "district": "Thoothukudi", "pincode": "628002", "latitude": 8.7642, "longitude": 78.1348},
    {"state": "Tamil Nadu", "city": "Kovilpatti", "district": "Thoothukudi", "pincode": "628501", "latitude": 9.1717, "longitude": 77.8694},
    {"state": "Tamil Nadu", "city": "Tiruchendur", "district": "Thoothukudi", "pincode": "628215", "latitude": 8.4972, "longitude": 78.1194},
    {"state": "Tamil Nadu", "city": "Kayalpattinam", "district": "Thoothukudi", "pincode": "628204", "latitude": 8.5667, "longitude": 78.1167},
    {"state": "Tamil Nadu", "city": "Kanyakumari", "district": "Kanyakumari", "pincode": "629702", "latitude": 8.0883, "longitude": 77.5385},
    {"state": "Tamil Nadu", "city": "Nagercoil", "district": "Kanyakumari", "pincode": "629001", "latitude": 8.1773, "longitude": 77.4344},
    {"state": "Tamil Nadu", "city": "Nagercoil", "district": "Kanyakumari", "pincode": "629002", "latitude": 8.1773, "longitude": 77.4344},
    {"state": "Tamil Nadu", "city": "Colachel", "district": "Kanyakumari", "pincode": "629251", "latitude": 8.1667, "longitude": 77.2500},
    {"state": "Tamil Nadu", "city": "Padmanabhapuram", "district": "Kanyakumari", "pincode": "629175", "latitude": 8.2333, "longitude": 77.3167},
    {"state": "Tamil Nadu", "city": "Kuzhithurai", "district": "Kanyakumari", "pincode": "629163", "latitude": 8.3167, "longitude": 77.1833}
]

